[{"OBJECT_NAME":"STARLINK-5704","OBJECT_ID":"2023-015AP","EPOCH":"2026-03-09T22:00:01.999584","MEAN_MOTION":15.08964077,"ECCENTRICITY":7.22e-5,"INCLINATION":42.9997,"RA_OF_ASC_NODE":337.5508,"ARG_OF_PERICENTER":237.0388,"MEAN_ANOMALY":345.3191,"EPHEMERIS_TYPE":0,"CLASSIFICATION_TYPE":"U","NORAD_CAT_ID":55486,"ELEMENT_SET_NO":999,"REV_AT_EPOCH":577,"BSTAR":0.0029909145,"MEAN_MOTION_DOT":0.00048162,"MEAN_MOTION_DDOT":0},{"OBJECT_NAME":"OBJECT BE","OBJECT_ID":"2018-099BE","EPOCH":"2026-03-09T15:10:24.322944","MEAN_MOTION":15.09972337,"ECCENTRICITY":0.0006427,"INCLINATION":97.4031,"RA_OF_ASC_NODE":111.7891,"ARG_OF_PERICENTER":340.4925,"MEAN_ANOMALY":19.6058,"EPHEMERIS_TYPE":0,"CLASSIFICATION_TYPE":"U","NORAD_CAT_ID":43810,"ELEMENT_SET_NO":999,"REV_AT_EPOCH":39698,"BSTAR":0.00027209,"MEAN_MOTION_DOT":4.358e-5,"MEAN_MOTION_DDOT":0}]
